#aV2007 12  4  0  0   .00000000      96 DD+AD WGS84 FIT  NGA
## 1456 172800.00000000   900.00000000 54438  .0000000000000
+   31     1  2  3  4  5  6  7  8  9 10 11 12 13 14 15 16 17
+         18 19 20 21 22 23 24 25 26 27 28 30 31 32  0  0  0
+          0  0  0  0  0  0  0  0  0  0  0  0  0  0  0  0  0
+          0  0  0  0  0  0  0  0  0  0  0  0  0  0  0  0  0
+          0  0  0  0  0  0  0  0  0  0  0  0  0  0  0  0  0
++         0  0  0  0  0  0  0  0  0  0  0  0  0  0  0  0  0
++         0  0  0  0  0  0  0  0  0  0  0  0  0  0  0  0  0
++         0  0  0  0  0  0  0  0  0  0  0  0  0  0  0  0  0
++         0  0  0  0  0  0  0  0  0  0  0  0  0  0  0  0  0
++         0  0  0  0  0  0  0  0  0  0  0  0  0  0  0  0  0
%c cc cc ccc ccc cccc cccc cccc cccc ccccc ccccc ccccc ccccc
%c cc cc ccc ccc cccc cccc cccc cccc ccccc ccccc ccccc ccccc
%f  0.0000000  0.000000000  0.00000000000  0.000000000000000
%f  0.0000000  0.000000000  0.00000000000  0.000000000000000
%i    0    0    0    0      0      0      0      0         0
%i    0    0    0    0      0      0      0      0         0
/*      NGA, ST. LOUIS,MO.                                  
/*   EPHEMERIS COMPUTED FROM  3 DAYS OF DATA                
/* CCCCCCCCCCCCCCCCCCCCCCCCCCCCCCCCCCCCCCCCCCCCCCCCCCCCCCCCC
/* CCCCCCCCCCCCCCCCCCCCCCCCCCCCCCCCCCCCCCCCCCCCCCCCCCCCCCCCC
*  2007 12  4  4 30   .00000000                                                 
P  1 -19695.750715 -17834.079320  -1078.567764    170.382005                    
V  1     62.930182  -2427.611384  32319.170159       .021824                    
P  2  13828.077750   9025.169866 -21043.373535    155.787644                    
V  2  -5248.805705  25769.221477   7358.077370       .028069                    
P  3 -23736.432932  -9034.483014   8106.294548    153.329484                    
V  3  -6753.959781  -8822.936605 -28402.203490       .055453                    
P  4   7642.637577  19875.459900 -15724.214060    -32.381357                    
V  4  -6346.735391  19139.520237  21584.223777      -.049152                    
P  5  18386.526953 -16397.687828 -10000.144716    577.334189                    
V  5  12573.412192  -2330.813849  27805.654299       .215337                    
P  6   3195.054396 -16629.980814 -20276.719587    200.347263                    
V  6  21298.551896  15404.649810  -9221.950980      -.110686                    
P  7   -530.534947 -18060.914842 -19126.920986    -23.378551                    
V  7  21063.348105  13748.024982 -13364.734325      -.016927                    
P  8    672.821769  24508.569154   9495.107625   -132.114088                    
V  8  -5139.275239  11438.283482 -29318.650864      -.015527                    
P  9  13667.108401 -14926.305071  16493.305235     99.505977                    
V  9  -1340.712065  22215.563414  20639.995840       .016015                    
P 10  24227.070445    395.476599 -11374.085304   -162.918823                    
V 10 -12829.993960   6255.992310 -27078.492776      -.118028                    
P 11 -12591.496970  17193.293035  15527.737917     26.343376                    
V 11  -3382.134914 -20344.263699  19935.955851       .001882                    
P 12  22945.330524 -12101.175944  -5442.662164   -350.330011                    
V 12   7551.165896    255.680046  30827.011883      -.011929                    
P 13  -1658.140655  16768.723849 -20640.899182    225.509572                    
V 13 -19360.283293 -17186.595835 -12444.299048       .025909                    
P 14 -13670.526578 -20783.496913   9542.666629   -315.613836                    
V 14   9941.148451   6758.235216  29175.409003       .026541                    
P 15  19932.028479    589.426539  17560.828890    -73.876378                    
V 15  15939.976263  15637.421928 -18668.968414       .034279                    
P 16 -21469.094681  -3926.870804 -15183.014943    127.567298                    
V 16  17743.372321  -7890.637519 -22775.648361       .014842                    
P 17  12968.648880  20881.394689  10264.564489     47.461099                    
V 17 -11352.188401  -6708.238617  27893.620023      -.008602                    
P 18   8090.196647 -16728.958434  19014.757179   -221.575978                    
V 18  23363.691336  -5502.247508 -15257.771340       .024185                    
P 19 -19750.617461  -1782.341431  17827.026740     10.290569                    
V 19 -14906.916670 -16821.832045 -18129.934992       .019526                    
P 20 -21014.095160  14029.232912  -8220.464026    125.129498                    
V 20 -10705.595242    816.656633  29170.245153      -.006655                    
P 21   5532.987214 -25645.577183     24.374532     75.741400                    
V 21   3937.041877   1001.605957 -31625.722724      -.005324                    
P 22  -6891.306115 -14110.672926  21584.991928    204.391801                    
V 22  25834.279570  -8096.037316   2938.666763       .007915                    
P 23 -13346.388850   8009.798363 -21613.297166    314.913842                    
V 23 -20411.537688 -18022.325245   5716.431036       .032961                    
P 24  12749.173873 -20820.855297 -10625.558780     51.051360                    
V 24   -814.075788  13870.725947 -27389.012219       .030760                    
P 25  -6743.547866  24859.156396  -6437.011873    487.196879                    
V 25  -1797.916290  -8812.255217 -30273.652784       .043257                    
P 26  20719.792189   5362.481242  15625.976609    115.092863                    
V 26  14215.860022  14673.003566 -22679.307227       .117270                    
P 27  -2887.899749  26290.487209    559.172212    151.906012                    
V 27  -2762.106361   -425.463913 -32020.822243       .024949                    
P 28   3861.800110  14864.947919  22013.583811    -11.446622                    
V 28 -25869.508891   8133.932051  -1313.960007      -.005878                    
P 30  13601.954751 -17197.154341 -15252.469919     54.795741                    
V 30  18370.527024  -4834.236257  22420.124108       .013421                    
P 31  -8803.579988 -17994.513402 -17194.151643      -.041281                    
V 31   5709.799004 -21578.120548  19504.690420      -.013842                    
P 32 -16242.902324  -9328.290596  19233.276102    160.117603                    
V 32  22406.257144  -7098.920028  16016.950136       .126119                    
EOF
